STARLINK-3047           
1 49174U 21082AW  21276.58334491 -.00047445  00000-0 -39785-3 0  9994
2 49174  70.0018  72.1044 0003870 272.8916 286.0066 15.69749639  3419
STARLINK-3087           
1 49175U 21082AX  21276.58334491 -.00019343  00000-0 -16055-3 0  9996
2 49175  70.0015  72.0962 0003479 274.1501 291.0489 15.69759812  3414
STARLINK-3069           
1 49176U 21082AY  21276.58334491 -.00017741  00000-0 -14701-3 0  9993
2 49176  70.0006  72.0868 0003662 274.8750 298.8339 15.69770319  3411
STARLINK-3103           
1 49177U 21082AZ  21276.58334491 -.00015088  00000-0 -12472-3 0  9999
2 49177  70.0021  72.0948 0003643 274.8053 292.5419 15.69771253  3411
STARLINK-3086           
1 49178U 21082BA  21276.41667824  .00051395  00000-0  42964-3 0  9999
2 49178  70.0024  72.5582 0003326 266.4480  83.5931 15.69750943  3389
STARLINK-3043           
1 49179U 21082BB  21276.58334491 -.00002442  00000-0 -18679-4 0  9997
2 49179  70.0000  72.0843 0003675 272.8809 296.3978 15.69748383  3416
STARLINK-3050           
1 49180U 21082BC  21276.58334491 -.00426064  00000-0 -37232-2 0  9993
2 49180  70.0013  72.0808 0003605 268.3270 307.4653 15.69928938  3418
STARLINK-3059           
1 49181U 21082BD  21275.08334491  .00053684  00000-0  44893-3 0  9992
2 49181  70.0011  76.2973 0003313 278.5384 105.4597 15.69731780  3174
ONEWEB-0292             
1 49186U 21083A   21276.58334491 -.01018960  00000-0 -52651-1 0  9994
2 49186  87.3189 321.5789 0018066 236.1568 328.2000 15.19073260  3645
ONEWEB-0303             
1 49187U 21083B   21276.58334491 -.01068696  00000-0 -58304-1 0  9997
2 49187  87.4317 321.6924 0017017 235.8922  51.4122 15.17358835  3616
ONEWEB-0306             
1 49188U 21083C   21276.58334491 -.01074855  00000-0 -54899-1 0  9997
2 49188  87.4363 321.6734 0019553 233.8574 170.4357 15.19593923  3641
ONEWEB-0307             
1 49189U 21083D   21276.58334491 -.01015222  00000-0 -54586-1 0  9994
2 49189  87.3168 321.5840 0015479 231.2666 260.7923 15.17742277  3646
ONEWEB-0320             
1 49190U 21083E   21276.58334491 -.01077278  00000-0 -59901-1 0  9991
2 49190  87.4294 321.6908 0016450 234.6715  25.0399 15.16733335  3617
ONEWEB-0321             
1 49191U 21083F   21276.58334491 -.01016241  00000-0 -51151-1 0  9994
2 49191  87.3215 321.5748 0019086 234.5006   4.7808 15.19942816  3620
ONEWEB-0322             
1 49192U 21083G   21276.58334491 -.01025982  00000-0 -53055-1 0  9992
2 49192  87.3196 321.5777 0017204 238.0051 319.1538 15.19084555  4171
ONEWEB-0324             
1 49193U 21083H   21276.58334491 -.01064767  00000-0 -57853-1 0  9997
2 49193  87.4323 321.6795 0018880 238.0572  92.5564 15.17449095  4156
ONEWEB-0325             
1 49194U 21083J   21276.58334491 -.01076665  00000-0 -59527-1 0  9998
2 49194  87.4277 321.6839 0016777 234.5930  38.0667 15.16923200  3675
ONEWEB-0326             
1 49195U 21083K   21276.58334491 -.01079862  00000-0 -55355-1 0  9996
2 49195  87.4277 321.6711 0019830 230.6140 176.8548 15.19477163  4156
ONEWEB-0327             
1 49196U 21083L   21276.58334491 -.01031171  00000-0 -56946-1 0  9995
2 49196  87.4399 321.6782 0019984 234.7788 118.0897 15.16763434  3625
ONEWEB-0328             
1 49197U 21083M   21276.58334491 -.01030373  00000-0 -53562-1 0  9990
2 49197  87.3188 321.5782 0016328 237.0727 302.5296 15.18934517  3647
ONEWEB-0331             
1 49198U 21083N   21276.58334491 -.01052550  00000-0 -54183-1 0  9992
2 49198  87.4223 321.6775 0019668 238.6716 112.9049 15.19260066  4155
ONEWEB-0333             
1 49199U 21083P   21276.58334491 -.01021504  00000-0 -53869-1 0  9998
2 49199  87.3204 321.5869 0015727 236.8841 291.5858 15.18426257  3648
ONEWEB-0334             
1 49200U 21083Q   21276.58334491 -.01026028  00000-0 -50728-1 0  9998
2 49200  87.3202 321.5623 0019350 226.0937  55.5981 15.20574645  4172
ONEWEB-0335             
1 49201U 21083R   21276.58334491 -.01022469  00000-0 -57367-1 0  9990
2 49201  87.3156 321.5960 0018753 227.3037 183.8057 15.16213787  3648
ONEWEB-0336             
1 49202U 21083S   21276.58334491 -.01021562  00000-0 -56232-1 0  9994
2 49202  87.3157 321.5905 0016416 227.0421 226.0896 15.16926168  3697
ONEWEB-0337             
1 49203U 21083T   21276.58334491 -.01002098  00000-0 -56628-1 0  9997
2 49203  87.3126 321.5935 0019289 227.9371 168.7182 15.15893276  3648
ONEWEB-0338             
1 49204U 21083U   21276.58334491 -.01032047  00000-0 -52988-1 0  9990
2 49204  87.3198 321.5743 0018649 234.8609 343.0034 15.19316308  3649
ONEWEB-0339             
1 49205U 21083V   21276.58334491 -.01031670  00000-0 -55525-1 0  9992
2 49205  87.3172 321.5832 0016335 229.9597 243.3610 15.17738190  3627
ONEWEB-0340             
1 49206U 21083W   21276.58334491 -.01079819  00000-0 -57243-1 0  9999
2 49206  87.4275 321.6825 0017169 237.7242  68.6392 15.18381459  3635
ONEWEB-0341             
1 49207U 21083X   21276.58334491 -.01078744  00000-0 -57609-1 0  9992
2 49207  87.4292 321.6795 0018376 238.5792  95.2556 15.18097852  4158
ONEWEB-0342             
1 49208U 21083Y   21276.58334491 -.01012027  00000-0 -49532-1 0  9991
2 49208  87.3238 321.5694 0019367 224.5322  70.1836 15.20880317  4174
ONEWEB-0343             
1 49209U 21083Z   21276.58334491 -.01033063  00000-0 -52763-1 0  9995
2 49209  87.4381 321.6887 0019819 233.7861 156.4134 15.19472280  3624
ONEWEB-0344             
1 49210U 21083AA  21276.58334491 -.01034052  00000-0 -57889-1 0  9990
2 49210  87.3121 321.5892 0018366 226.7971 194.1023 15.16332469  3629
ONEWEB-0345             
1 49211U 21083AB  21276.58334491 -.01027521  00000-0 -56964-1 0  9997
2 49211  87.3150 321.5916 0017606 226.2254 209.9520 15.16670899  4163
ONEWEB-0346             
1 49212U 21083AC  21276.58334491 -.01078644  00000-0 -58581-1 0  9997
2 49212  87.4307 321.6835 0017748 239.1866  66.3328 15.17528789  3632
ONEWEB-0348             
1 49213U 21083AD  21276.58334491 -.01016244  00000-0 -50369-1 0  9992
2 49213  87.3245 321.5761 0019466 227.8017  42.0769 15.20460472  3628
ONEWEB-0350             
1 49214U 21083AE  21276.58334491 -.01036992  00000-0 -55830-1 0  9993
2 49214  87.3175 321.5860 0015245 233.9257 263.1264 15.17763049  4175
ONEWEB-0351             
1 49215U 21083AF  21276.58334491 -.01024161  00000-0 -48844-1 0  9996
2 49215  87.3235 321.5618 0016772 217.5889 133.2070 15.21849646  3645
ONEWEB-0352             
1 49216U 21083AG  21276.58334491 -.01032056  00000-0 -56123-1 0  9998
2 49216  87.3168 321.5908 0016032 229.9572 249.5736 15.17386589  3645
ONEWEB-0354             
1 49217U 21083AH  21276.58334491 -.01015029  00000-0 -43776-1 0  9990
2 49217  87.3400 321.5671 0017300 219.5258 195.2543 15.25185702  3643
ONEWEB-0355             
1 49218U 21083AJ  21276.58334491 -.01025627  00000-0 -54387-1 0  9996
2 49218  87.3159 321.5773 0015256 236.2060 277.7268 15.18255493  3651
ONEWEB-0357             
1 49219U 21083AK  21276.58334491 -.01029764  00000-0 -51443-1 0  9993
2 49219  87.3211 321.5690 0018925 230.9219  29.2851 15.20241169  4176
SZ-12 MODULE            
1 49221U 21053C   21276.40010452  .00008535  00000-0  10554-3 0  9992
2 49221  41.5579 343.3324 0004010  27.4729 332.6322 15.60260445  2522
TIANZHOU-3              
1 49222U 21085A   21274.53363095  .00005434  00000-0  65818-4 0  9993
2 49222  41.4715 354.3609 0000947 343.7614  35.0327 15.61378428 24338
JILIN-01 GAOFEN 2D      
1 49256U 21086A   21276.57576389  .00000349  00000-0  25924-4 0  9993
2 49256  97.5407  22.3380 0010440 242.2108 314.3331 15.09216710   950
SHIYAN 10 (SY-10)       
1 49258U 21087A   21275.82731993  .00003014 -40035-7  20116-3 0  9996
2 49258  51.0811  78.1941 7528666 225.9131 354.0640  2.01062517   139
LANDSAT 9               
1 49260U 21088A   21276.47510679  .00001165  00000-0  22999-3 0  9994
2 49260  98.2182 345.0883 0011284 269.3126  90.5462 14.64271124   838
CUTE                    
1 49263U 21088D   21276.60247665  .00002203  00000-0  17417-3 0  9997
2 49263  97.6235 344.5255 0017516 228.6875 131.2843 15.01572247   864
